ONEWEB-0512             
1 54130U 22138T   25243.61236793  .00000057  00000+0  10936-3 0  9995
2 54130  87.9263   2.5595 0001727  84.2419 275.8911 13.19724943138616
ONEWEB-0513             
1 54131U 22138U   25243.58823603  .00000066  00000+0  13218-3 0  9990
2 54131  87.9283   2.5245 0002082  80.5565 279.5804 13.20313228138509
ONEWEB-0514             
1 54132U 22138V   25243.32489496  .00000039  00000+0  65062-4 0  9996
2 54132  87.9280   2.5884 0001864  99.9357 260.1987 13.19725745138592
ONEWEB-0515             
1 54133U 22138W   25243.50064289  .00000086  00000+0  17847-3 0  9995
2 54133  87.9299 332.1584 0001907 127.4754 232.6553 13.20770151141060
ONEWEB-0516             
1 54134U 22138X   25243.60289731  .00000129  00000+0  29013-3 0  9994
2 54134  87.9266   2.5662 0001648  96.9860 263.1460 13.19725052138633
ONEWEB-0517             
1 54135U 22138Y   25243.58235693  .00000134  00000+0  30208-3 0  9994
2 54135  87.9279   2.5323 0002117  95.5358 264.6016 13.19725534138639
ONEWEB-0518             
1 54136U 22138Z   25243.37384386  .00000078  00000+0  16270-3 0  9996
2 54136  87.9277   2.6102 0001709  93.1080 267.0249 13.19727591138603
ONEWEB-0519             
1 54137U 22138AA  25243.24750143  .00000031  00000+0  44977-4 0  9996
2 54137  87.9277   2.5908 0002014  94.8601 265.2762 13.19725371138596
